[ {
  "OBJECT_ID": "1997-030A",
  "OBJECT_NAME": "IRIDIUM 914",
  "NORAD_CAT_ID": "24836",
  "OBJECT_TYPE": "PAYLOAD",
  "PERIOD": "100.090",
  "INCLINATION": "86.3914",
  "APOGEE": "764.761",
  "PERIGEE": "760.840",
  "ECCENTRICITY": "0.0002745",
  "MEAN_MOTION": "14.38699403",
  "TLE_LINE1": "1 24836U 97030A   16239.23257827  .00000123  00000-0  33764-4 0  9992",
  "TLE_LINE2": "2 24836  86.3914  98.9200 0002745  50.0849 310.0590 14.38699403  6537",
  "LAUNCH_DATE": "1997-06-18",
  "LAUNCH_SITE": "TYURATAM MISSILE AND SPACE COMPLEX",
  "OWNER": "UNITED STATES OF AMERICA",
  "ORBIT_TYPE": "Low Earth Orbit",
  "OPERATIONAL_STATUS": "Nonoperational"
}, {
  "OBJECT_ID": "1997-030F",
  "OBJECT_NAME": "IRIDIUM 16",
  "NORAD_CAT_ID": "24841",
  "OBJECT_TYPE": "PAYLOAD",
  "PERIOD": "100.233",
  "INCLINATION": "86.4035",
  "APOGEE": "771.915",
  "PERIGEE": "767.265",
  "ECCENTRICITY": "0.0003253",
  "MEAN_MOTION": "14.36649903",
  "TLE_LINE1": "1 24841U 97030F   16239.23796625  .00000074  00000-0  18546-4 0  9998",
  "TLE_LINE2": "2 24841  86.4035 113.5722 0003253 129.7832 230.3652 14.36649903  5239",
  "LAUNCH_DATE": "1997-06-18",
  "LAUNCH_SITE": "TYURATAM MISSILE AND SPACE COMPLEX",
  "OWNER": "UNITED STATES OF AMERICA",
  "ORBIT_TYPE": "Low Earth Orbit",
  "OPERATIONAL_STATUS": "Nonoperational"
}, {
  "OBJECT_ID": "1997-030G",
  "OBJECT_NAME": "IRIDIUM 911",
  "NORAD_CAT_ID": "24842",
  "OBJECT_TYPE": "PAYLOAD",
  "PERIOD": "99.662",
  "INCLINATION": "86.4463",
  "APOGEE": "752.707",
  "PERIGEE": "732.128",
  "ECCENTRICITY": "0.0014451",
  "MEAN_MOTION": "14.44881307",
  "TLE_LINE1": "1 24842U 97030G   16239.51121093  .00000139  00000-0  34243-4 0  9995",
  "TLE_LINE2": "2 24842  86.4463 114.4165 0014451 358.4712   1.6443 14.44881307 10391",
  "LAUNCH_DATE": "1997-06-18",
  "LAUNCH_SITE": "TYURATAM MISSILE AND SPACE COMPLEX",
  "OWNER": "UNITED STATES OF AMERICA",
  "ORBIT_TYPE": "Low Earth Orbit",
  "OPERATIONAL_STATUS": "Nonoperational"
}, {
  "OBJECT_ID": "1997-034B",
  "OBJECT_NAME": "IRIDIUM 17",
  "NORAD_CAT_ID": "24870",
  "OBJECT_TYPE": "PAYLOAD",
  "PERIOD": "100.299",
  "INCLINATION": "86.4006",
  "APOGEE": "775.540",
  "PERIGEE": "769.979",
  "ECCENTRICITY": "0.0003888",
  "MEAN_MOTION": "14.35694848",
  "TLE_LINE1": "1 24870U 97034B   16239.35928291  .00000145  00000-0  43532-4 0  9995",
  "TLE_LINE2": "2 24870  86.4006 143.7335 0003888  93.1419 267.0222 14.35694848  1876",
  "LAUNCH_DATE": "1997-07-09",
  "LAUNCH_SITE": "AIR FORCE WESTERN TEST RANGE",
  "OWNER": "UNITED STATES OF AMERICA",
  "ORBIT_TYPE": "Low Earth Orbit",
  "OPERATIONAL_STATUS": "Nonoperational"
}, {
  "OBJECT_ID": "1997-034C",
  "OBJECT_NAME": "IRIDIUM 920",
  "NORAD_CAT_ID": "24871",
  "OBJECT_TYPE": "PAYLOAD",
  "PERIOD": "100.040",
  "INCLINATION": "86.4",
  "APOGEE": "767.580",
  "PERIGEE": "753.263",
  "ECCENTRICITY": "0.0010028",
  "MEAN_MOTION": "14.3941849",
  "TLE_LINE1": "1 24871U 97034C   16239.21104317  .00000071  00000-0  16273-4 0  9996",
  "TLE_LINE2": "2 24871  86.4000 130.6974 0010028 224.2033 135.8365 14.39418490  3916",
  "LAUNCH_DATE": "1997-07-09",
  "LAUNCH_SITE": "AIR FORCE WESTERN TEST RANGE",
  "OWNER": "UNITED STATES OF AMERICA",
  "ORBIT_TYPE": "Low Earth Orbit",
  "OPERATIONAL_STATUS": "Nonoperational"
}, {
  "OBJECT_ID": "1997-034E",
  "OBJECT_NAME": "IRIDIUM 921",
  "NORAD_CAT_ID": "24873",
  "OBJECT_TYPE": "PAYLOAD",
  "PERIOD": "95.322",
  "INCLINATION": "86.3951",
  "APOGEE": "540.664",
  "PERIGEE": "527.676",
  "ECCENTRICITY": "0.0009395",
  "MEAN_MOTION": "15.10665626",
  "TLE_LINE1": "1 24873U 97034E   16239.41253460  .00000769  00000-0  44358-4 0  9993",
  "TLE_LINE2": "2 24873  86.3951 205.1953 0009395  36.6068 323.5810 15.10665626 43588",
  "LAUNCH_DATE": "1997-07-09",
  "LAUNCH_SITE": "AIR FORCE WESTERN TEST RANGE",
  "OWNER": "UNITED STATES OF AMERICA",
  "ORBIT_TYPE": "Low Earth Orbit",
  "OPERATIONAL_STATUS": "Nonoperational"
}, {
  "OBJECT_ID": "1997-037A",
  "OBJECT_NAME": "ORBVIEW 2 (SEASTAR)",
  "NORAD_CAT_ID": "24883",
  "OBJECT_TYPE": "PAYLOAD",
  "PERIOD": "100.465",
  "INCLINATION": "98.5265",
  "APOGEE": "781.508",
  "PERIGEE": "779.707",
  "ECCENTRICITY": "0.0001258",
  "MEAN_MOTION": "14.33334776",
  "TLE_LINE1": "1 24883U 97037A   16239.39713893  .00000034  00000-0  28075-4 0  9998",
  "TLE_LINE2": "2 24883  98.5265 346.2587 0001258 244.2123 115.8931 14.33334776  9672",
  "LAUNCH_DATE": "1997-08-01",
  "LAUNCH_SITE": "Pegasus launched from Western Range Air Space",
  "OWNER": "UNITED STATES OF AMERICA",
  "ORBIT_TYPE": "Low Earth Orbit",
  "OPERATIONAL_STATUS": "Nonoperational"
}, {
  "OBJECT_ID": "1997-043A",
  "OBJECT_NAME": "IRIDIUM 26",
  "NORAD_CAT_ID": "24903",
  "OBJECT_TYPE": "PAYLOAD",
  "PERIOD": "100.333",
  "INCLINATION": "86.3983",
  "APOGEE": "775.912",
  "PERIGEE": "772.851",
  "ECCENTRICITY": "0.000214",
  "MEAN_MOTION": "14.35206513",
  "TLE_LINE1": "1 24903U 97043A   16239.46816488  .00000124  00000-0  36411-4 0  9993",
  "TLE_LINE2": "2 24903  86.3983  18.1871 0002140  96.4873 327.3503 14.35206513995700",
  "LAUNCH_DATE": "1997-08-21",
  "LAUNCH_SITE": "AIR FORCE WESTERN TEST RANGE",
  "OWNER": "UNITED STATES OF AMERICA",
  "ORBIT_TYPE": "Low Earth Orbit",
  "OPERATIONAL_STATUS": "Nonoperational"
}, {
  "OBJECT_ID": "1997-048A",
  "OBJECT_NAME": "DUMMY MASS 1",
  "NORAD_CAT_ID": "24925",
  "OBJECT_TYPE": "PAYLOAD",
  "PERIOD": "96.963",
  "INCLINATION": "86.34",
  "APOGEE": "618.705",
  "PERIGEE": "607.896",
  "ECCENTRICITY": "0.000773",
  "MEAN_MOTION": "14.85091322",
  "TLE_LINE1": "1 24925U 97048A   16238.92572441 +.00000108 +00000-0 +93914-5 0  9994",
  "TLE_LINE2": "2 24925 086.3400 179.5273 0007730 024.7448 335.4145 14.85091322027521",
  "LAUNCH_DATE": "1997-09-01",
  "LAUNCH_SITE": "Taiyaun Space Center, China",
  "OWNER": "PEOPLES REPUBLIC OF CHINA",
  "ORBIT_TYPE": "Low Earth Orbit",
  "OPERATIONAL_STATUS": "Nonoperational"
}, {
  "OBJECT_ID": "1997-048B",
  "OBJECT_NAME": "DUMMY MASS 2",
  "NORAD_CAT_ID": "24926",
  "OBJECT_TYPE": "PAYLOAD",
  "PERIOD": "96.978",
  "INCLINATION": "86.3399",
  "APOGEE": "620.167",
  "PERIGEE": "607.888",
  "ECCENTRICITY": "0.0008781",
  "MEAN_MOTION": "14.84859768",
  "TLE_LINE1": "1 24926U 97048B   16238.98556033  .00000111  00000-0  97001-5 0  9995",
  "TLE_LINE2": "2 24926  86.3399 180.5659 0008781  29.3270 330.8445 14.84859768 27628",
  "LAUNCH_DATE": "1997-09-01",
  "LAUNCH_SITE": "Taiyaun Space Center, China",
  "OWNER": "PEOPLES REPUBLIC OF CHINA",
  "ORBIT_TYPE": "Low Earth Orbit",
  "OPERATIONAL_STATUS": "Nonoperational"
}, {
  "OBJECT_ID": "1997-051A",
  "OBJECT_NAME": "IRIDIUM 29",
  "NORAD_CAT_ID": "24944",
  "OBJECT_TYPE": "PAYLOAD",
  "PERIOD": "100.376",
  "INCLINATION": "86.3934",
  "APOGEE": "778.053",
  "PERIGEE": "774.786",
  "ECCENTRICITY": "0.0002283",
  "MEAN_MOTION": "14.34593486",
  "TLE_LINE1": "1 24944U 97051A   16239.49100742  .00000117  00000-0  34506-4 0  9994",
  "TLE_LINE2": "2 24944  86.3934  50.1508 0002283  82.0137 278.1318 14.34593486992178",
  "LAUNCH_DATE": "1997-09-14",
  "LAUNCH_SITE": "TYURATAM MISSILE AND SPACE COMPLEX",
  "OWNER": "UNITED STATES OF AMERICA",
  "ORBIT_TYPE": "Low Earth Orbit",
  "OPERATIONAL_STATUS": "Nonoperational"
}, {
  "OBJECT_ID": "1997-051C",
  "OBJECT_NAME": "IRIDIUM 33",
  "NORAD_CAT_ID": "24946",
  "OBJECT_TYPE": "PAYLOAD",
  "PERIOD": "100.453",
  "INCLINATION": "86.3849",
  "APOGEE": "787.055",
  "PERIGEE": "773.020",
  "ECCENTRICITY": "0.0009804",
  "MEAN_MOTION": "14.33505904",
  "TLE_LINE1": "1 24946U 97051C   16239.47986861  .00000104  00000-0  30452-4 0  9990",
  "TLE_LINE2": "2 24946  86.3849  50.0876 0009804 116.7889 243.4310 14.33505904991811",
  "LAUNCH_DATE": "1997-09-14",
  "LAUNCH_SITE": "TYURATAM MISSILE AND SPACE COMPLEX",
  "OWNER": "UNITED STATES OF AMERICA",
  "ORBIT_TYPE": "Low Earth Orbit",
  "OPERATIONAL_STATUS": "Nonoperational"
}, {
  "OBJECT_ID": "1997-051E",
  "OBJECT_NAME": "IRIDIUM 28",
  "NORAD_CAT_ID": "24948",
  "OBJECT_TYPE": "PAYLOAD",
  "PERIOD": "100.313",
  "INCLINATION": "86.394",
  "APOGEE": "775.063",
  "PERIGEE": "771.770",
  "ECCENTRICITY": "0.0002302",
  "MEAN_MOTION": "14.35497039",
  "TLE_LINE1": "1 24948U 97051E   16239.48466772  .00000100  00000-0  27875-4 0  9998",
  "TLE_LINE2": "2 24948  86.3940  49.5534 0002302  99.3242 260.8215 14.35497039992295",
  "LAUNCH_DATE": "1997-09-14",
  "LAUNCH_SITE": "TYURATAM MISSILE AND SPACE COMPLEX",
  "OWNER": "UNITED STATES OF AMERICA",
  "ORBIT_TYPE": "Low Earth Orbit",
  "OPERATIONAL_STATUS": "Nonoperational"
}, {
  "OBJECT_ID": "1997-056C",
  "OBJECT_NAME": "IRIDIUM 36",
  "NORAD_CAT_ID": "24967",
  "OBJECT_TYPE": "PAYLOAD",
  "PERIOD": "100.310",
  "INCLINATION": "86.3933",
  "APOGEE": "774.871",
  "PERIGEE": "771.630",
  "ECCENTRICITY": "0.0002266",
  "MEAN_MOTION": "14.35547059",
  "TLE_LINE1": "1 24967U 97056C   16239.50021134  .00000115  00000-0  33228-4 0  9991",
  "TLE_LINE2": "2 24967  86.3933  81.1952 0002266  85.7745 274.3711 14.35547059990589",
  "LAUNCH_DATE": "1997-09-27",
  "LAUNCH_SITE": "AIR FORCE WESTERN TEST RANGE",
  "OWNER": "UNITED STATES OF AMERICA",
  "ORBIT_TYPE": "Low Earth Orbit",
  "OPERATIONAL_STATUS": "Nonoperational"
}, {
  "OBJECT_ID": "1997-057A",
  "OBJECT_NAME": "IRS 1D",
  "NORAD_CAT_ID": "24971",
  "OBJECT_TYPE": "PAYLOAD",
  "PERIOD": "100.429",
  "INCLINATION": "98.3903",
  "APOGEE": "817.660",
  "PERIGEE": "740.226",
  "ECCENTRICITY": "0.0054096",
  "MEAN_MOTION": "14.33834651",
  "TLE_LINE1": "1 24971U 97057A   16239.44868698  .00000000  00000-0  15035-4 0  9993",
  "TLE_LINE2": "2 24971  98.3903 189.7263 0054096  18.9428 341.3749 14.33834651989183",
  "LAUNCH_DATE": "1997-09-29",
  "LAUNCH_SITE": "SIRHARIKOTA",
  "OWNER": "INDIA",
  "ORBIT_TYPE": "Low Earth Orbit",
  "OPERATIONAL_STATUS": "Nonoperational"
}]